{"type": "FeatureCollection", "features": [{"type": "Feature", "properties": {"norad_id": 50032, "name": "COSMOS 1408 DEB", "group": "cosmos-1408-debris", "lat": 56.48312362871851, "lon": 73.07961401499641, "alt_km": 433.88211147243965, "timestamp": "2025-12-09T14:52:26.432243+00:00", "meta": {"OBJECT_NAME": "COSMOS 1408 DEB", "OBJECT_ID": "1982-092RU", "EPOCH": "2025-12-09T06:51:27.931680", "MEAN_MOTION": 15.45639861, "ECCENTRICITY": 0.00149547, "INCLINATION": 82.5641, "RA_OF_ASC_NODE": 62.0486, "ARG_OF_PERICENTER": 221.8802, "MEAN_ANOMALY": 138.1304, "EPHEMERIS_TYPE": 0, "CLASSIFICATION_TYPE": "U", "NORAD_CAT_ID": 50032, "ELEMENT_SET_NO": 999, "REV_AT_EPOCH": 22550, "BSTAR": 0.00015339361, "MEAN_MOTION_DOT": 7.459e-05, "MEAN_MOTION_DDOT": 0}, "tle": {"line1": "1 50032U 82092RU  25343.28573995  .00007459  00000+0  15339-3 0  9994", "line2": "2 50032  82.5641  62.0486 0014954 221.8802 138.1304 15.45639861225502"}}, "geometry": {"type": "Point", "coordinates": [73.07961401499641, 56.48312362871851]}}, {"type": "Feature", "properties": {"norad_id": 50058, "name": "COSMOS 1408 DEB", "group": "cosmos-1408-debris", "lat": 53.172306417071354, "lon": 82.58338114248325, "alt_km": 365.51653503185935, "timestamp": "2025-12-09T14:52:26.432288+00:00", "meta": {"OBJECT_NAME": "COSMOS 1408 DEB", "OBJECT_ID": "1982-092SW", "EPOCH": "2025-12-09T06:57:57.674304", "MEAN_MOTION": 15.63783016, "ECCENTRICITY": 0.00163848, "INCLINATION": 82.6128, "RA_OF_ASC_NODE": 72.9508, "ARG_OF_PERICENTER": 110.9292, "MEAN_ANOMALY": 249.3723, "EPHEMERIS_TYPE": 0, "CLASSIFICATION_TYPE": "U", "NORAD_CAT_ID": 50058, "ELEMENT_SET_NO": 999, "REV_AT_EPOCH": 22750, "BSTAR": 0.0004021999, "MEAN_MOTION_DOT": 0.00037979, "MEAN_MOTION_DDOT": 0}, "tle": {"line1": "1 50058U 82092SW  25343.29025086  .00037979  00000+0  40220-3 0  9993", "line2": "2 50058  82.6128  72.9508 0016384 110.9292 249.3723 15.63783016227500"}}, "geometry": {"type": "Point", "coordinates": [82.58338114248325, 53.172306417071354]}}, {"type": "Feature", "properties": {"norad_id": 50404, "name": "COSMOS 1408 DEB", "group": "cosmos-1408-debris", "lat": 11.05062061171674, "lon": -140.24063229491634, "alt_km": 641.7211280398278, "timestamp": "2025-12-09T14:52:26.432302+00:00", "meta": {"OBJECT_NAME": "COSMOS 1408 DEB", "OBJECT_ID": "1982-092ADS", "EPOCH": "2025-12-09T02:07:31.133856", "MEAN_MOTION": 15.1299152, "ECCENTRICITY": 0.01734954, "INCLINATION": 82.2038, "RA_OF_ASC_NODE": 218.7693, "ARG_OF_PERICENTER": 211.4724, "MEAN_ANOMALY": 147.6039, "EPHEMERIS_TYPE": 0, "CLASSIFICATION_TYPE": "U", "NORAD_CAT_ID": 50404, "ELEMENT_SET_NO": 999, "REV_AT_EPOCH": 21138, "BSTAR": 0.0031720673, "MEAN_MOTION_DOT": 0.00081978, "MEAN_MOTION_DDOT": 0}, "tle": {"line1": "1 50404U 82092ADS 25343.08855479  .00081978  00000+0  31721-2 0  9995", "line2": "2 50404  82.2038 218.7693 0173495 211.4724 147.6039 15.12991520211384"}}, "geometry": {"type": "Point", "coordinates": [-140.24063229491634, 11.05062061171674]}}, {"type": "Feature", "properties": {"norad_id": 50621, "name": "COSMOS 1408 DEB", "group": "cosmos-1408-debris", "lat": 26.146154328451345, "lon": -106.24467802157191, "alt_km": 378.1201853515413, "timestamp": "2025-12-09T14:52:26.432315+00:00", "meta": {"OBJECT_NAME": "COSMOS 1408 DEB", "OBJECT_ID": "1982-092ALR", "EPOCH": "2025-12-09T06:30:05.287392", "MEAN_MOTION": 15.56380529, "ECCENTRICITY": 0.00287463, "INCLINATION": 82.5697, "RA_OF_ASC_NODE": 77.7916, "ARG_OF_PERICENTER": 165.1376, "MEAN_ANOMALY": 195.0731, "EPHEMERIS_TYPE": 0, "CLASSIFICATION_TYPE": "U", "NORAD_CAT_ID": 50621, "ELEMENT_SET_NO": 999, "REV_AT_EPOCH": 22196, "BSTAR": 0.00049840816, "MEAN_MOTION_DOT": 0.00035943, "MEAN_MOTION_DDOT": 0}, "tle": {"line1": "1 50621U 82092ALR 25343.27089453  .00035943  00000+0  49841-3 0  9992", "line2": "2 50621  82.5697  77.7916 0028746 165.1376 195.0731 15.56380529221966"}}, "geometry": {"type": "Point", "coordinates": [-106.24467802157191, 26.146154328451345]}}]}